KUIPER-00167            
1 65780U 25217U   25361.16668980 -.00025521  00000+0 -33368-2 0  9995
2 65780  51.8978   6.1973 0001051 117.0557 179.8894 14.79864072  2180
KUIPER-00168            
1 65781U 25217V   25361.16668980  .00018472  00000+0  67806-3 0  9996
2 65781  51.8776 354.3112 0001906 110.5482  81.7964 15.27985134  1572
KUIPER-00169            
1 65782U 25217W   25361.16668980 -.01400190  00000+0 -88825-1 0  9994
2 65782  51.8871 356.2184 0005225  77.9343 277.8703 15.11538490  5574
KUIPER-00170            
1 65783U 25217X   25361.16668980 -.01066077  00000+0 -96126-1 0  9990
2 65783  51.8943 359.6901 0007888  65.3539  24.4211 14.98151104  4277
KUIPER-00171            
1 65784U 25217Y   25361.17287848  .00245164  00000+0  17512-2 0  9998
2 65784  51.8554 342.7748 0010856  70.1062 290.1108 15.72413153 14425
KUIPER-00172            
1 65785U 25217Z   25361.16668980 -.00014612  00000+0 -66001-3 0  9990
2 65785  51.8808 355.1905 0005542  73.2089 356.5919 15.19770431  2015
KUIPER-00173            
1 65786U 25217AA  25361.16668980 -.01511540  00000+0 -98643-1 0  9999
2 65786  51.8849 356.4094 0001723  39.5359 128.4385 15.10802549  2386
KUIPER-00174            
1 65787U 25217AB  25361.16668980 -.00844634  00000+0 -35405-1 0  9999
2 65787  51.8781 354.4707 0001131  75.2463   0.3852 15.25753944  5769
