<?xml version="1.0" encoding="UTF-8"?>
<ndm xmlns:xsi="http://www.w3.org/2001/XMLSchema-instance" xsi:noNamespaceSchemaLocation="https://sanaregistry.org/r/ndmxml_unqualified/ndmxml-2.0.0-master-2.0.xsd">
<omm id="CCSDS_OMM_VERS" version="2.0">
<header><CREATION_DATE/><ORIGINATOR/></header><body><segment><metadata><OBJECT_NAME>KUIPER-00167</OBJECT_NAME><OBJECT_ID>2025-217U</OBJECT_ID><CENTER_NAME>EARTH</CENTER_NAME><REF_FRAME>TEME</REF_FRAME><TIME_SYSTEM>UTC</TIME_SYSTEM><MEAN_ELEMENT_THEORY>SGP4</MEAN_ELEMENT_THEORY></metadata><data><meanElements><EPOCH>2025-12-27T04:00:01.998720</EPOCH><MEAN_MOTION>14.79864072</MEAN_MOTION><ECCENTRICITY>.0001051</ECCENTRICITY><INCLINATION>51.8978</INCLINATION><RA_OF_ASC_NODE>6.1973</RA_OF_ASC_NODE><ARG_OF_PERICENTER>117.0557</ARG_OF_PERICENTER><MEAN_ANOMALY>179.8894</MEAN_ANOMALY></meanElements><tleParameters><EPHEMERIS_TYPE>0</EPHEMERIS_TYPE><CLASSIFICATION_TYPE>U</CLASSIFICATION_TYPE><NORAD_CAT_ID>65780</NORAD_CAT_ID><ELEMENT_SET_NO>999</ELEMENT_SET_NO><REV_AT_EPOCH>218</REV_AT_EPOCH><BSTAR>-.33368E-2</BSTAR><MEAN_MOTION_DOT>-.25521E-3</MEAN_MOTION_DOT><MEAN_MOTION_DDOT>0</MEAN_MOTION_DDOT></tleParameters></data></segment></body></omm>
<omm id="CCSDS_OMM_VERS" version="2.0">
<header><CREATION_DATE/><ORIGINATOR/></header><body><segment><metadata><OBJECT_NAME>KUIPER-00168</OBJECT_NAME><OBJECT_ID>2025-217V</OBJECT_ID><CENTER_NAME>EARTH</CENTER_NAME><REF_FRAME>TEME</REF_FRAME><TIME_SYSTEM>UTC</TIME_SYSTEM><MEAN_ELEMENT_THEORY>SGP4</MEAN_ELEMENT_THEORY></metadata><data><meanElements><EPOCH>2025-12-27T04:00:01.998720</EPOCH><MEAN_MOTION>15.27985134</MEAN_MOTION><ECCENTRICITY>.0001906</ECCENTRICITY><INCLINATION>51.8776</INCLINATION><RA_OF_ASC_NODE>354.3112</RA_OF_ASC_NODE><ARG_OF_PERICENTER>110.5482</ARG_OF_PERICENTER><MEAN_ANOMALY>81.7964</MEAN_ANOMALY></meanElements><tleParameters><EPHEMERIS_TYPE>0</EPHEMERIS_TYPE><CLASSIFICATION_TYPE>U</CLASSIFICATION_TYPE><NORAD_CAT_ID>65781</NORAD_CAT_ID><ELEMENT_SET_NO>999</ELEMENT_SET_NO><REV_AT_EPOCH>157</REV_AT_EPOCH><BSTAR>.67806E-3</BSTAR><MEAN_MOTION_DOT>.18472E-3</MEAN_MOTION_DOT><MEAN_MOTION_DDOT>0</MEAN_MOTION_DDOT></tleParameters></data></segment></body></omm>
<omm id="CCSDS_OMM_VERS" version="2.0">
<header><CREATION_DATE/><ORIGINATOR/></header><body><segment><metadata><OBJECT_NAME>KUIPER-00169</OBJECT_NAME><OBJECT_ID>2025-217W</OBJECT_ID><CENTER_NAME>EARTH</CENTER_NAME><REF_FRAME>TEME</REF_FRAME><TIME_SYSTEM>UTC</TIME_SYSTEM><MEAN_ELEMENT_THEORY>SGP4</MEAN_ELEMENT_THEORY></metadata><data><meanElements><EPOCH>2025-12-27T04:00:01.998720</EPOCH><MEAN_MOTION>15.11538490</MEAN_MOTION><ECCENTRICITY>.0005225</ECCENTRICITY><INCLINATION>51.8871</INCLINATION><RA_OF_ASC_NODE>356.2184</RA_OF_ASC_NODE><ARG_OF_PERICENTER>77.9343</ARG_OF_PERICENTER><MEAN_ANOMALY>277.8703</MEAN_ANOMALY></meanElements><tleParameters><EPHEMERIS_TYPE>0</EPHEMERIS_TYPE><CLASSIFICATION_TYPE>U</CLASSIFICATION_TYPE><NORAD_CAT_ID>65782</NORAD_CAT_ID><ELEMENT_SET_NO>999</ELEMENT_SET_NO><REV_AT_EPOCH>557</REV_AT_EPOCH><BSTAR>-.88825E-1</BSTAR><MEAN_MOTION_DOT>-.140019E-1</MEAN_MOTION_DOT><MEAN_MOTION_DDOT>0</MEAN_MOTION_DDOT></tleParameters></data></segment></body></omm>
<omm id="CCSDS_OMM_VERS" version="2.0">
<header><CREATION_DATE/><ORIGINATOR/></header><body><segment><metadata><OBJECT_NAME>KUIPER-00170</OBJECT_NAME><OBJECT_ID>2025-217X</OBJECT_ID><CENTER_NAME>EARTH</CENTER_NAME><REF_FRAME>TEME</REF_FRAME><TIME_SYSTEM>UTC</TIME_SYSTEM><MEAN_ELEMENT_THEORY>SGP4</MEAN_ELEMENT_THEORY></metadata><data><meanElements><EPOCH>2025-12-27T04:00:01.998720</EPOCH><MEAN_MOTION>14.98151104</MEAN_MOTION><ECCENTRICITY>.0007888</ECCENTRICITY><INCLINATION>51.8943</INCLINATION><RA_OF_ASC_NODE>359.6901</RA_OF_ASC_NODE><ARG_OF_PERICENTER>65.3539</ARG_OF_PERICENTER><MEAN_ANOMALY>24.4211</MEAN_ANOMALY></meanElements><tleParameters><EPHEMERIS_TYPE>0</EPHEMERIS_TYPE><CLASSIFICATION_TYPE>U</CLASSIFICATION_TYPE><NORAD_CAT_ID>65783</NORAD_CAT_ID><ELEMENT_SET_NO>999</ELEMENT_SET_NO><REV_AT_EPOCH>427</REV_AT_EPOCH><BSTAR>-.96126E-1</BSTAR><MEAN_MOTION_DOT>-.1066077E-1</MEAN_MOTION_DOT><MEAN_MOTION_DDOT>0</MEAN_MOTION_DDOT></tleParameters></data></segment></body></omm>
<omm id="CCSDS_OMM_VERS" version="2.0">
<header><CREATION_DATE/><ORIGINATOR/></header><body><segment><metadata><OBJECT_NAME>KUIPER-00171</OBJECT_NAME><OBJECT_ID>2025-217Y</OBJECT_ID><CENTER_NAME>EARTH</CENTER_NAME><REF_FRAME>TEME</REF_FRAME><TIME_SYSTEM>UTC</TIME_SYSTEM><MEAN_ELEMENT_THEORY>SGP4</MEAN_ELEMENT_THEORY></metadata><data><meanElements><EPOCH>2025-12-27T04:08:56.700672</EPOCH><MEAN_MOTION>15.72413153</MEAN_MOTION><ECCENTRICITY>.0010856</ECCENTRICITY><INCLINATION>51.8554</INCLINATION><RA_OF_ASC_NODE>342.7748</RA_OF_ASC_NODE><ARG_OF_PERICENTER>70.1062</ARG_OF_PERICENTER><MEAN_ANOMALY>290.1108</MEAN_ANOMALY></meanElements><tleParameters><EPHEMERIS_TYPE>0</EPHEMERIS_TYPE><CLASSIFICATION_TYPE>U</CLASSIFICATION_TYPE><NORAD_CAT_ID>65784</NORAD_CAT_ID><ELEMENT_SET_NO>999</ELEMENT_SET_NO><REV_AT_EPOCH>1442</REV_AT_EPOCH><BSTAR>.17512E-2</BSTAR><MEAN_MOTION_DOT>.245164E-2</MEAN_MOTION_DOT><MEAN_MOTION_DDOT>0</MEAN_MOTION_DDOT></tleParameters></data></segment></body></omm>
<omm id="CCSDS_OMM_VERS" version="2.0">
<header><CREATION_DATE/><ORIGINATOR/></header><body><segment><metadata><OBJECT_NAME>KUIPER-00172</OBJECT_NAME><OBJECT_ID>2025-217Z</OBJECT_ID><CENTER_NAME>EARTH</CENTER_NAME><REF_FRAME>TEME</REF_FRAME><TIME_SYSTEM>UTC</TIME_SYSTEM><MEAN_ELEMENT_THEORY>SGP4</MEAN_ELEMENT_THEORY></metadata><data><meanElements><EPOCH>2025-12-27T04:00:01.998720</EPOCH><MEAN_MOTION>15.19770431</MEAN_MOTION><ECCENTRICITY>.0005542</ECCENTRICITY><INCLINATION>51.8808</INCLINATION><RA_OF_ASC_NODE>355.1905</RA_OF_ASC_NODE><ARG_OF_PERICENTER>73.2089</ARG_OF_PERICENTER><MEAN_ANOMALY>356.5919</MEAN_ANOMALY></meanElements><tleParameters><EPHEMERIS_TYPE>0</EPHEMERIS_TYPE><CLASSIFICATION_TYPE>U</CLASSIFICATION_TYPE><NORAD_CAT_ID>65785</NORAD_CAT_ID><ELEMENT_SET_NO>999</ELEMENT_SET_NO><REV_AT_EPOCH>201</REV_AT_EPOCH><BSTAR>-.66001E-3</BSTAR><MEAN_MOTION_DOT>-.14612E-3</MEAN_MOTION_DOT><MEAN_MOTION_DDOT>0</MEAN_MOTION_DDOT></tleParameters></data></segment></body></omm>
<omm id="CCSDS_OMM_VERS" version="2.0">
<header><CREATION_DATE/><ORIGINATOR/></header><body><segment><metadata><OBJECT_NAME>KUIPER-00173</OBJECT_NAME><OBJECT_ID>2025-217AA</OBJECT_ID><CENTER_NAME>EARTH</CENTER_NAME><REF_FRAME>TEME</REF_FRAME><TIME_SYSTEM>UTC</TIME_SYSTEM><MEAN_ELEMENT_THEORY>SGP4</MEAN_ELEMENT_THEORY></metadata><data><meanElements><EPOCH>2025-12-27T04:00:01.998720</EPOCH><MEAN_MOTION>15.10802549</MEAN_MOTION><ECCENTRICITY>.0001723</ECCENTRICITY><INCLINATION>51.8849</INCLINATION><RA_OF_ASC_NODE>356.4094</RA_OF_ASC_NODE><ARG_OF_PERICENTER>39.5359</ARG_OF_PERICENTER><MEAN_ANOMALY>128.4385</MEAN_ANOMALY></meanElements><tleParameters><EPHEMERIS_TYPE>0</EPHEMERIS_TYPE><CLASSIFICATION_TYPE>U</CLASSIFICATION_TYPE><NORAD_CAT_ID>65786</NORAD_CAT_ID><ELEMENT_SET_NO>999</ELEMENT_SET_NO><REV_AT_EPOCH>238</REV_AT_EPOCH><BSTAR>-.98643E-1</BSTAR><MEAN_MOTION_DOT>-.151154E-1</MEAN_MOTION_DOT><MEAN_MOTION_DDOT>0</MEAN_MOTION_DDOT></tleParameters></data></segment></body></omm>
<omm id="CCSDS_OMM_VERS" version="2.0">
<header><CREATION_DATE/><ORIGINATOR/></header><body><segment><metadata><OBJECT_NAME>KUIPER-00174</OBJECT_NAME><OBJECT_ID>2025-217AB</OBJECT_ID><CENTER_NAME>EARTH</CENTER_NAME><REF_FRAME>TEME</REF_FRAME><TIME_SYSTEM>UTC</TIME_SYSTEM><MEAN_ELEMENT_THEORY>SGP4</MEAN_ELEMENT_THEORY></metadata><data><meanElements><EPOCH>2025-12-27T04:00:01.998720</EPOCH><MEAN_MOTION>15.25753944</MEAN_MOTION><ECCENTRICITY>.0001131</ECCENTRICITY><INCLINATION>51.8781</INCLINATION><RA_OF_ASC_NODE>354.4707</RA_OF_ASC_NODE><ARG_OF_PERICENTER>75.2463</ARG_OF_PERICENTER><MEAN_ANOMALY>0.3852</MEAN_ANOMALY></meanElements><tleParameters><EPHEMERIS_TYPE>0</EPHEMERIS_TYPE><CLASSIFICATION_TYPE>U</CLASSIFICATION_TYPE><NORAD_CAT_ID>65787</NORAD_CAT_ID><ELEMENT_SET_NO>999</ELEMENT_SET_NO><REV_AT_EPOCH>576</REV_AT_EPOCH><BSTAR>-.35405E-1</BSTAR><MEAN_MOTION_DOT>-.844634E-2</MEAN_MOTION_DOT><MEAN_MOTION_DDOT>0</MEAN_MOTION_DDOT></tleParameters></data></segment></body></omm>

</ndm>
